ORBCOMM FM33            
1 25983U 99065D   25094.75673502  .00002392  00000+0  80052-3 0  9994
2 25983  45.0297 348.0222 0008941  48.4857 311.6758 14.39775397325483
ORBCOMM FM36            
1 25984U 99065E   25095.18090104  .00003517  00000+0  12011-2 0  9993
2 25984  45.0383  76.8155 0005304 297.8423  62.1888 14.37872282324503
ORBCOMM FM35            
1 25985U 99065F   25094.69177059  .00002329  00000+0  82789-3 0  9994
2 25985  45.0385  83.5909 0004091 355.5927   4.4885 14.36869899324214
ORBCOMM FM34            
1 25986U 99065G   25094.65937598  .00002306  00000+0  81960-3 0  9998
2 25986  45.0379  84.2337 0005662 320.4330  39.6104 14.36910667324321
ORBCOMM FM38            
1 33060U 08031A   25095.01807169  .00004747  00000+0  63427-3 0  9993
2 33060  48.4400 303.8571 0004785  86.6795 273.4668 14.80912487903895
ORBCOMM FM41            
1 33061U 08031B   25095.09436226  .00004330  00000+0  58649-3 0  9992
2 33061  48.4438 311.0244 0003974  70.2958  67.2425 14.80519216903842
ORBCOMM FM29            
1 33062U 08031C   25095.01671725  .00004847  00000+0  65186-3 0  9997
2 33062  48.4392 319.2878 0005745  68.3111  74.2319 14.80597179903699
ORBCOMM FM39            
1 33063U 08031D   25095.08531842  .00004194  00000+0  58668-3 0  9992
2 33063  48.4409 342.4435 0006775  39.7583 320.3827 14.79201787903396
