<?xml version="1.0" encoding="UTF-8"?>
<ndm xmlns:xsi="http://www.w3.org/2001/XMLSchema-instance" xsi:noNamespaceSchemaLocation="https://sanaregistry.org/r/ndmxml_unqualified/ndmxml-2.0.0-master-2.0.xsd">
<omm id="CCSDS_OMM_VERS" version="2.0">
<header><CREATION_DATE/><ORIGINATOR/></header><body><segment><metadata><OBJECT_NAME>ORBCOMM FM33</OBJECT_NAME><OBJECT_ID>1999-065D</OBJECT_ID><CENTER_NAME>EARTH</CENTER_NAME><REF_FRAME>TEME</REF_FRAME><TIME_SYSTEM>UTC</TIME_SYSTEM><MEAN_ELEMENT_THEORY>SGP4</MEAN_ELEMENT_THEORY></metadata><data><meanElements><EPOCH>2025-04-04T18:09:41.905728</EPOCH><MEAN_MOTION>14.39775397</MEAN_MOTION><ECCENTRICITY>.0008941</ECCENTRICITY><INCLINATION>45.0297</INCLINATION><RA_OF_ASC_NODE>348.0222</RA_OF_ASC_NODE><ARG_OF_PERICENTER>48.4857</ARG_OF_PERICENTER><MEAN_ANOMALY>311.6758</MEAN_ANOMALY></meanElements><tleParameters><EPHEMERIS_TYPE>0</EPHEMERIS_TYPE><CLASSIFICATION_TYPE>U</CLASSIFICATION_TYPE><NORAD_CAT_ID>25983</NORAD_CAT_ID><ELEMENT_SET_NO>999</ELEMENT_SET_NO><REV_AT_EPOCH>32548</REV_AT_EPOCH><BSTAR>.80052E-3</BSTAR><MEAN_MOTION_DOT>.2392E-4</MEAN_MOTION_DOT><MEAN_MOTION_DDOT>0</MEAN_MOTION_DDOT></tleParameters></data></segment></body></omm>
<omm id="CCSDS_OMM_VERS" version="2.0">
<header><CREATION_DATE/><ORIGINATOR/></header><body><segment><metadata><OBJECT_NAME>ORBCOMM FM36</OBJECT_NAME><OBJECT_ID>1999-065E</OBJECT_ID><CENTER_NAME>EARTH</CENTER_NAME><REF_FRAME>TEME</REF_FRAME><TIME_SYSTEM>UTC</TIME_SYSTEM><MEAN_ELEMENT_THEORY>SGP4</MEAN_ELEMENT_THEORY></metadata><data><meanElements><EPOCH>2025-04-05T04:20:29.849856</EPOCH><MEAN_MOTION>14.37872282</MEAN_MOTION><ECCENTRICITY>.0005304</ECCENTRICITY><INCLINATION>45.0383</INCLINATION><RA_OF_ASC_NODE>76.8155</RA_OF_ASC_NODE><ARG_OF_PERICENTER>297.8423</ARG_OF_PERICENTER><MEAN_ANOMALY>62.1888</MEAN_ANOMALY></meanElements><tleParameters><EPHEMERIS_TYPE>0</EPHEMERIS_TYPE><CLASSIFICATION_TYPE>U</CLASSIFICATION_TYPE><NORAD_CAT_ID>25984</NORAD_CAT_ID><ELEMENT_SET_NO>999</ELEMENT_SET_NO><REV_AT_EPOCH>32450</REV_AT_EPOCH><BSTAR>.12011E-2</BSTAR><MEAN_MOTION_DOT>.3517E-4</MEAN_MOTION_DOT><MEAN_MOTION_DDOT>0</MEAN_MOTION_DDOT></tleParameters></data></segment></body></omm>
<omm id="CCSDS_OMM_VERS" version="2.0">
<header><CREATION_DATE/><ORIGINATOR/></header><body><segment><metadata><OBJECT_NAME>ORBCOMM FM35</OBJECT_NAME><OBJECT_ID>1999-065F</OBJECT_ID><CENTER_NAME>EARTH</CENTER_NAME><REF_FRAME>TEME</REF_FRAME><TIME_SYSTEM>UTC</TIME_SYSTEM><MEAN_ELEMENT_THEORY>SGP4</MEAN_ELEMENT_THEORY></metadata><data><meanElements><EPOCH>2025-04-04T16:36:08.978976</EPOCH><MEAN_MOTION>14.36869899</MEAN_MOTION><ECCENTRICITY>.0004091</ECCENTRICITY><INCLINATION>45.0385</INCLINATION><RA_OF_ASC_NODE>83.5909</RA_OF_ASC_NODE><ARG_OF_PERICENTER>355.5927</ARG_OF_PERICENTER><MEAN_ANOMALY>4.4885</MEAN_ANOMALY></meanElements><tleParameters><EPHEMERIS_TYPE>0</EPHEMERIS_TYPE><CLASSIFICATION_TYPE>U</CLASSIFICATION_TYPE><NORAD_CAT_ID>25985</NORAD_CAT_ID><ELEMENT_SET_NO>999</ELEMENT_SET_NO><REV_AT_EPOCH>32421</REV_AT_EPOCH><BSTAR>.82789E-3</BSTAR><MEAN_MOTION_DOT>.2329E-4</MEAN_MOTION_DOT><MEAN_MOTION_DDOT>0</MEAN_MOTION_DDOT></tleParameters></data></segment></body></omm>
<omm id="CCSDS_OMM_VERS" version="2.0">
<header><CREATION_DATE/><ORIGINATOR/></header><body><segment><metadata><OBJECT_NAME>ORBCOMM FM34</OBJECT_NAME><OBJECT_ID>1999-065G</OBJECT_ID><CENTER_NAME>EARTH</CENTER_NAME><REF_FRAME>TEME</REF_FRAME><TIME_SYSTEM>UTC</TIME_SYSTEM><MEAN_ELEMENT_THEORY>SGP4</MEAN_ELEMENT_THEORY></metadata><data><meanElements><EPOCH>2025-04-04T15:49:30.084672</EPOCH><MEAN_MOTION>14.36910667</MEAN_MOTION><ECCENTRICITY>.0005662</ECCENTRICITY><INCLINATION>45.0379</INCLINATION><RA_OF_ASC_NODE>84.2337</RA_OF_ASC_NODE><ARG_OF_PERICENTER>320.4330</ARG_OF_PERICENTER><MEAN_ANOMALY>39.6104</MEAN_ANOMALY></meanElements><tleParameters><EPHEMERIS_TYPE>0</EPHEMERIS_TYPE><CLASSIFICATION_TYPE>U</CLASSIFICATION_TYPE><NORAD_CAT_ID>25986</NORAD_CAT_ID><ELEMENT_SET_NO>999</ELEMENT_SET_NO><REV_AT_EPOCH>32432</REV_AT_EPOCH><BSTAR>.8196E-3</BSTAR><MEAN_MOTION_DOT>.2306E-4</MEAN_MOTION_DOT><MEAN_MOTION_DDOT>0</MEAN_MOTION_DDOT></tleParameters></data></segment></body></omm>
<omm id="CCSDS_OMM_VERS" version="2.0">
<header><CREATION_DATE/><ORIGINATOR/></header><body><segment><metadata><OBJECT_NAME>ORBCOMM FM38</OBJECT_NAME><OBJECT_ID>2008-031A</OBJECT_ID><CENTER_NAME>EARTH</CENTER_NAME><REF_FRAME>TEME</REF_FRAME><TIME_SYSTEM>UTC</TIME_SYSTEM><MEAN_ELEMENT_THEORY>SGP4</MEAN_ELEMENT_THEORY></metadata><data><meanElements><EPOCH>2025-04-05T00:26:01.394016</EPOCH><MEAN_MOTION>14.80912487</MEAN_MOTION><ECCENTRICITY>.0004785</ECCENTRICITY><INCLINATION>48.4400</INCLINATION><RA_OF_ASC_NODE>303.8571</RA_OF_ASC_NODE><ARG_OF_PERICENTER>86.6795</ARG_OF_PERICENTER><MEAN_ANOMALY>273.4668</MEAN_ANOMALY></meanElements><tleParameters><EPHEMERIS_TYPE>0</EPHEMERIS_TYPE><CLASSIFICATION_TYPE>U</CLASSIFICATION_TYPE><NORAD_CAT_ID>33060</NORAD_CAT_ID><ELEMENT_SET_NO>999</ELEMENT_SET_NO><REV_AT_EPOCH>90389</REV_AT_EPOCH><BSTAR>.63427E-3</BSTAR><MEAN_MOTION_DOT>.4747E-4</MEAN_MOTION_DOT><MEAN_MOTION_DDOT>0</MEAN_MOTION_DDOT></tleParameters></data></segment></body></omm>
<omm id="CCSDS_OMM_VERS" version="2.0">
<header><CREATION_DATE/><ORIGINATOR/></header><body><segment><metadata><OBJECT_NAME>ORBCOMM FM41</OBJECT_NAME><OBJECT_ID>2008-031B</OBJECT_ID><CENTER_NAME>EARTH</CENTER_NAME><REF_FRAME>TEME</REF_FRAME><TIME_SYSTEM>UTC</TIME_SYSTEM><MEAN_ELEMENT_THEORY>SGP4</MEAN_ELEMENT_THEORY></metadata><data><meanElements><EPOCH>2025-04-05T02:15:52.899264</EPOCH><MEAN_MOTION>14.80519216</MEAN_MOTION><ECCENTRICITY>.0003974</ECCENTRICITY><INCLINATION>48.4438</INCLINATION><RA_OF_ASC_NODE>311.0244</RA_OF_ASC_NODE><ARG_OF_PERICENTER>70.2958</ARG_OF_PERICENTER><MEAN_ANOMALY>67.2425</MEAN_ANOMALY></meanElements><tleParameters><EPHEMERIS_TYPE>0</EPHEMERIS_TYPE><CLASSIFICATION_TYPE>U</CLASSIFICATION_TYPE><NORAD_CAT_ID>33061</NORAD_CAT_ID><ELEMENT_SET_NO>999</ELEMENT_SET_NO><REV_AT_EPOCH>90384</REV_AT_EPOCH><BSTAR>.58649E-3</BSTAR><MEAN_MOTION_DOT>.433E-4</MEAN_MOTION_DOT><MEAN_MOTION_DDOT>0</MEAN_MOTION_DDOT></tleParameters></data></segment></body></omm>
<omm id="CCSDS_OMM_VERS" version="2.0">
<header><CREATION_DATE/><ORIGINATOR/></header><body><segment><metadata><OBJECT_NAME>ORBCOMM FM29</OBJECT_NAME><OBJECT_ID>2008-031C</OBJECT_ID><CENTER_NAME>EARTH</CENTER_NAME><REF_FRAME>TEME</REF_FRAME><TIME_SYSTEM>UTC</TIME_SYSTEM><MEAN_ELEMENT_THEORY>SGP4</MEAN_ELEMENT_THEORY></metadata><data><meanElements><EPOCH>2025-04-05T00:24:04.370400</EPOCH><MEAN_MOTION>14.80597179</MEAN_MOTION><ECCENTRICITY>.0005745</ECCENTRICITY><INCLINATION>48.4392</INCLINATION><RA_OF_ASC_NODE>319.2878</RA_OF_ASC_NODE><ARG_OF_PERICENTER>68.3111</ARG_OF_PERICENTER><MEAN_ANOMALY>74.2319</MEAN_ANOMALY></meanElements><tleParameters><EPHEMERIS_TYPE>0</EPHEMERIS_TYPE><CLASSIFICATION_TYPE>U</CLASSIFICATION_TYPE><NORAD_CAT_ID>33062</NORAD_CAT_ID><ELEMENT_SET_NO>999</ELEMENT_SET_NO><REV_AT_EPOCH>90369</REV_AT_EPOCH><BSTAR>.65186E-3</BSTAR><MEAN_MOTION_DOT>.4847E-4</MEAN_MOTION_DOT><MEAN_MOTION_DDOT>0</MEAN_MOTION_DDOT></tleParameters></data></segment></body></omm>
<omm id="CCSDS_OMM_VERS" version="2.0">
<header><CREATION_DATE/><ORIGINATOR/></header><body><segment><metadata><OBJECT_NAME>ORBCOMM FM39</OBJECT_NAME><OBJECT_ID>2008-031D</OBJECT_ID><CENTER_NAME>EARTH</CENTER_NAME><REF_FRAME>TEME</REF_FRAME><TIME_SYSTEM>UTC</TIME_SYSTEM><MEAN_ELEMENT_THEORY>SGP4</MEAN_ELEMENT_THEORY></metadata><data><meanElements><EPOCH>2025-04-05T02:02:51.511488</EPOCH><MEAN_MOTION>14.79201787</MEAN_MOTION><ECCENTRICITY>.0006775</ECCENTRICITY><INCLINATION>48.4409</INCLINATION><RA_OF_ASC_NODE>342.4435</RA_OF_ASC_NODE><ARG_OF_PERICENTER>39.7583</ARG_OF_PERICENTER><MEAN_ANOMALY>320.3827</MEAN_ANOMALY></meanElements><tleParameters><EPHEMERIS_TYPE>0</EPHEMERIS_TYPE><CLASSIFICATION_TYPE>U</CLASSIFICATION_TYPE><NORAD_CAT_ID>33063</NORAD_CAT_ID><ELEMENT_SET_NO>999</ELEMENT_SET_NO><REV_AT_EPOCH>90339</REV_AT_EPOCH><BSTAR>.58668E-3</BSTAR><MEAN_MOTION_DOT>.4194E-4</MEAN_MOTION_DOT><MEAN_MOTION_DDOT>0</MEAN_MOTION_DDOT></tleParameters></data></segment></body></omm>

</ndm>
